{
  "type": "FeatureCollection",
  "features": [
    {
      "type": "Feature",
      "properties": {
        "norad_id": 43719,
        "name": "HYSIS",
        "group": "resource",
        "lat": -39.87363755184126,
        "lon": 52.733124608827765,
        "alt_km": 640.3777915923165,
        "timestamp": "2025-12-08T23:34:03.627258+00:00",
        "meta_object_name": "HYSIS",
        "meta_object_id": "2018-096A",
        "meta_epoch": "2025-12-08T14:00:18.499680",
        "meta_mean_motion": 14.78629097,
        "meta_eccentricity": 0.00015127,
        "meta_inclination": 98.0099,
        "meta_ra_of_asc_node": 45.5815,
        "meta_arg_of_pericenter": 62.1422,
        "meta_mean_anomaly": 297.9942,
        "meta_ephemeris_type": 0,
        "meta_classification_type": "U",
        "meta_norad_cat_id": 43719,
        "meta_element_set_no": 999,
        "meta_rev_at_epoch": 37925,
        "meta_bstar": 0.00035113621,
        "meta_mean_motion_dot": 2.519e-05,
        "meta_mean_motion_ddot": 0,
        "tle_line1": "1 43719U 18096A   25342.58354745  .00002519  00000+0  35114-3 0  9998",
        "tle_line2": "2 43719  98.0099  45.5815 0001512  62.1422 297.9942 14.78629097379256"
      },
      "geometry": {
        "type": "Point",
        "coordinates": [
          52.733124608827765,
          -39.87363755184126
        ]
      }
    },
    {
      "type": "Feature",
      "properties": {
        "norad_id": 43783,
        "name": "KAZSTSAT",
        "group": "resource",
        "lat": -80.23089597478835,
        "lon": 67.84428420089475,
        "alt_km": 574.8153447394388,
        "timestamp": "2025-12-08T23:34:03.627268+00:00",
        "meta_object_name": "KAZSTSAT",
        "meta_object_id": "2018-099AB",
        "meta_epoch": "2025-12-08T14:19:47.284320",
        "meta_mean_motion": 14.99334294,
        "meta_eccentricity": 0.00061342,
        "meta_inclination": 97.4556,
        "meta_ra_of_asc_node": 17.9599,
        "meta_arg_of_pericenter": 347.1722,
        "meta_mean_anomaly": 12.9344,
        "meta_ephemeris_type": 0,
        "meta_classification_type": "U",
        "meta_norad_cat_id": 43783,
        "meta_element_set_no": 999,
        "meta_rev_at_epoch": 38274,
        "meta_bstar": 0.00024539393,
        "meta_mean_motion_dot": 2.944e-05,
        "meta_mean_motion_ddot": 0,
        "tle_line1": "1 43783U 18099AB  25342.59707505  .00002944  00000+0  24539-3 0  9990",
        "tle_line2": "2 43783  97.4556  17.9599 0006134 347.1722  12.9344 14.99334294382748"
      },
      "geometry": {
        "type": "Point",
        "coordinates": [
          67.84428420089475,
          -80.23089597478835
        ]
      }
    },
    {
      "type": "Feature",
      "properties": {
        "norad_id": 43831,
        "name": "SAUDISAT 5A",
        "group": "resource",
        "lat": -25.781298366133907,
        "lon": 46.8129846706235,
        "alt_km": 497.9906111811015,
        "timestamp": "2025-12-08T23:34:03.627278+00:00",
        "meta_object_name": "SAUDISAT 5A",
        "meta_object_id": "2018-102A",
        "meta_epoch": "2025-12-08T14:14:11.038848",
        "meta_mean_motion": 15.2557905,
        "meta_eccentricity": 0.00118175,
        "meta_inclination": 97.3354,
        "meta_ra_of_asc_node": 42.8643,
        "meta_arg_of_pericenter": 88.8871,
        "meta_mean_anomaly": 271.3721,
        "meta_ephemeris_type": 0,
        "meta_classification_type": "U",
        "meta_norad_cat_id": 43831,
        "meta_element_set_no": 999,
        "meta_rev_at_epoch": 38659,
        "meta_bstar": 0.0003728556,
        "meta_mean_motion_dot": 9.417e-05,
        "meta_mean_motion_ddot": 0,
        "tle_line1": "1 43831U 18102A   25342.59318332  .00009417  00000+0  37286-3 0  9990",
        "tle_line2": "2 43831  97.3354  42.8643 0011817  88.8871 271.3721 15.25579050386590"
      },
      "geometry": {
        "type": "Point",
        "coordinates": [
          46.8129846706235,
          -25.781298366133907
        ]
      }
    },
    {
      "type": "Feature",
      "properties": {
        "norad_id": 43833,
        "name": "SAUDISAT 5B",
        "group": "resource",
        "lat": 21.26896485292836,
        "lon": 43.09941726595582,
        "alt_km": 484.7568208898392,
        "timestamp": "2025-12-08T23:34:03.627289+00:00",
        "meta_object_name": "SAUDISAT 5B",
        "meta_object_id": "2018-102C",
        "meta_epoch": "2025-12-08T14:01:51.916224",
        "meta_mean_motion": 15.25933554,
        "meta_eccentricity": 0.00125361,
        "meta_inclination": 97.3449,
        "meta_ra_of_asc_node": 45.5871,
        "meta_arg_of_pericenter": 91.4241,
        "meta_mean_anomaly": 268.8434,
        "meta_ephemeris_type": 0,
        "meta_classification_type": "U",
        "meta_norad_cat_id": 43833,
        "meta_element_set_no": 999,
        "meta_rev_at_epoch": 38670,
        "meta_bstar": 0.00034818691,
        "meta_mean_motion_dot": 8.885e-05,
        "meta_mean_motion_ddot": 0,
        "tle_line1": "1 43833U 18102C   25342.58462866  .00008885  00000+0  34819-3 0  9990",
        "tle_line2": "2 43833  97.3449  45.5871 0012536  91.4241 268.8434 15.25933554386708"
      },
      "geometry": {
        "type": "Point",
        "coordinates": [
          43.09941726595582,
          21.26896485292836
        ]
      }
    },
    {
      "type": "Feature",
      "properties": {
        "norad_id": 44622,
        "name": "GAOFEN-10R",
        "group": "resource",
        "lat": -8.255140024098894,
        "lon": 109.30031112785204,
        "alt_km": 628.6807634202414,
        "timestamp": "2025-12-08T23:34:03.627299+00:00",
        "meta_object_name": "GAOFEN-10R",
        "meta_object_id": "2019-066A",
        "meta_epoch": "2025-12-08T14:37:27.186816",
        "meta_mean_motion": 14.82771194,
        "meta_eccentricity": 0.00080708,
        "meta_inclination": 98.0276,
        "meta_ra_of_asc_node": 290.0995,
        "meta_arg_of_pericenter": 53.3445,
        "meta_mean_anomaly": 306.8509,
        "meta_ephemeris_type": 0,
        "meta_classification_type": "U",
        "meta_norad_cat_id": 44622,
        "meta_element_set_no": 999,
        "meta_rev_at_epoch": 33413,
        "meta_bstar": 0.00040982012,
        "meta_mean_motion_dot": 3.26e-05,
        "meta_mean_motion_ddot": 0,
        "tle_line1": "1 44622U 19066A   25342.60934244  .00003260  00000+0  40982-3 0  9994",
        "tle_line2": "2 44622  98.0276 290.0995 0008070  53.3445 306.8509 14.82771194334134"
      },
      "geometry": {
        "type": "Point",
        "coordinates": [
          109.30031112785204,
          -8.255140024098894
        ]
      }
    },
    {
      "type": "Feature",
      "properties": {
        "norad_id": 44804,
        "name": "CARTOSAT-3",
        "group": "resource",
        "lat": -38.455818072689176,
        "lon": -143.3592885093873,
        "alt_km": 519.1874609090855,
        "timestamp": "2025-12-08T23:34:03.627309+00:00",
        "meta_object_name": "CARTOSAT-3",
        "meta_object_id": "2019-081A",
        "meta_epoch": "2025-12-08T14:42:20.770560",
        "meta_mean_motion": 15.19318391,
        "meta_eccentricity": 0.00139577,
        "meta_inclination": 97.4585,
        "meta_ra_of_asc_node": 42.2481,
        "meta_arg_of_pericenter": 100.0342,
        "meta_mean_anomaly": 260.2468,
        "meta_ephemeris_type": 0,
        "meta_classification_type": "U",
        "meta_norad_cat_id": 44804,
        "meta_element_set_no": 999,
        "meta_rev_at_epoch": 33453,
        "meta_bstar": 0.00031457796,
        "meta_mean_motion_dot": 6.592e-05,
        "meta_mean_motion_ddot": 0,
        "tle_line1": "1 44804U 19081A   25342.61274040  .00006592  00000+0  31458-3 0  9994",
        "tle_line2": "2 44804  97.4585  42.2481 0013957 100.0342 260.2468 15.19318391334533"
      },
      "geometry": {
        "type": "Point",
        "coordinates": [
          -143.3592885093873,
          -38.455818072689176
        ]
      }
    },
    {
      "type": "Feature",
      "properties": {
        "norad_id": 44819,
        "name": "GAOFEN-12 01",
        "group": "resource",
        "lat": 55.17111068174397,
        "lon": -179.25711939717422,
        "alt_km": 622.6342448705509,
        "timestamp": "2025-12-08T23:34:03.627320+00:00",
        "meta_object_name": "GAOFEN-12 01",
        "meta_object_id": "2019-082A",
        "meta_epoch": "2025-12-08T14:54:00.098208",
        "meta_mean_motion": 14.80650606,
        "meta_eccentricity": 0.00011876,
        "meta_inclination": 97.8126,
        "meta_ra_of_asc_node": 349.01,
        "meta_arg_of_pericenter": 260.9521,
        "meta_mean_anomaly": 99.1557,
        "meta_ephemeris_type": 0,
        "meta_classification_type": "U",
        "meta_norad_cat_id": 44819,
        "meta_element_set_no": 999,
        "meta_rev_at_epoch": 32589,
        "meta_bstar": 0.00013971946,
        "meta_mean_motion_dot": 1.022e-05,
        "meta_mean_motion_ddot": 0,
        "tle_line1": "1 44819U 19082A   25342.62083447  .00001022  00000+0  13972-3 0  9995",
        "tle_line2": "2 44819  97.8126 349.0100 0001187 260.9521  99.1557 14.80650606325899"
      },
      "geometry": {
        "type": "Point",
        "coordinates": [
          -179.25711939717422,
          55.17111068174397
        ]
      }
    }
  ]
}